STARLINK-2386           
1 47805U 21018U   21106.58334491 -.00001536  00000-0 -65084-5 0  9998
2 47805  53.0489   7.9297 0001123  72.1843 242.3193 15.73242294  1779
STARLINK-2387           
1 47806U 21018V   21106.58334491  .00037950  00000-0  27371-3 0  9991
2 47806  53.0491   7.9192 0001137  92.7329 226.9066 15.73185640  1766
STARLINK-2388           
1 47807U 21018W   21106.58334491 -.00042275  00000-0 -29760-3 0  9994
2 47807  53.0489   7.9404 0000982  80.0306 229.3749 15.73251695  1772
STARLINK-2389           
1 47808U 21018X   21106.58334491 -.00001063  00000-0 -31522-5 0  9996
2 47808  53.0491   7.9207 0001163  69.8980 248.8515 15.73213523  1924
STARLINK-2390           
1 47809U 21018Y   21106.58334491  .00061243  00000-0  43794-3 0  9993
2 47809  53.0495   7.8976 0000802  87.5018 242.9016 15.73177787  1774
STARLINK-2391           
1 47810U 21018Z   21106.58334491 -.01075359  00000-0 -34493-1 0  9995
2 47810  53.0495  10.0319 0001253  78.8629 189.4789 15.34585044  1818
STARLINK-2392           
1 47811U 21018AA  21106.58334491  .00063511  00000-0  45377-3 0  9995
2 47811  53.0491   7.9276 0000882  82.5525 233.2262 15.73183364  1777
STARLINK-2393           
1 47812U 21018AB  21106.58334491 -.01074688  00000-0 -35104-1 0  9991
2 47812  53.0485  10.0952 0001313  76.5302 155.9068 15.34014300  1766
STARLINK-2394           
1 47813U 21018AC  21106.58334491 -.00021314  00000-0 -14775-3 0  9992
2 47813  53.0491   7.9365 0000812  83.6930 227.6912 15.73209750  1770
STARLINK-2395           
1 47814U 21018AD  21106.58334491  .00063584  00000-0  45439-3 0  9997
2 47814  53.0494   7.9160 0000793  77.4062 244.0951 15.73177830  1771
STARLINK-2396           
1 47815U 21018AE  21106.58334491  .00031387  00000-0  22713-3 0  9994
2 47815  53.0493   7.9186 0001215  89.5124 230.7179 15.73205160  1774
STARLINK-2399           
1 47816U 21018AF  21106.58334491  .00042351  00000-0  30470-3 0  9997
2 47816  53.0493   7.9050 0001264  81.1076 245.5182 15.73192027  1778
STARLINK-2400           
1 47817U 21018AG  21106.58334491  .00053124  00000-0  38079-3 0  9991
2 47817  53.0493   7.9130 0000981  83.3191 239.4930 15.73180451  1776
STARLINK-2401           
1 47818U 21018AH  21106.58334491 -.01098488  00000-0 -14409-1 0  9996
2 47818  53.0500   8.1465 0001258  72.0261 141.2332 15.60530625  1775
STARLINK-2402           
1 47819U 21018AJ  21106.58334491 -.00004621  00000-0 -28493-4 0  9993
2 47819  53.0493   7.9144 0000803  70.9276 251.2363 15.73221964  1825
STARLINK-2403           
1 47820U 21018AK  21106.58334491 -.01075613  00000-0 -34303-1 0  9999
2 47820  53.0507  10.0004 0001254  73.0998 207.0034 15.34765374  1761
STARLINK-2406           
1 47821U 21018AL  21106.58334491  .00063824  00000-0  45599-3 0  9999
2 47821  53.0493   7.9118 0000766  74.0965 249.3361 15.73182098  1771
STARLINK-2407           
1 47822U 21018AM  21106.58334491 -.01076781  00000-0 -33735-1 0  9996
2 47822  53.0499  10.0091 0001286  61.7423 253.4084 15.35321527  1760
STARLINK-2408           
1 47823U 21018AN  21106.58334491 -.00007450  00000-0 -48642-4 0  9999
2 47823  53.0493   7.9078 0001124  73.4516 251.8944 15.73227176  1774
STARLINK-2409           
1 47824U 21018AP  21106.58334491 -.00068831  00000-0 -48862-3 0  9993
2 47824  53.0492   7.9037 0001114  81.8844 245.3685 15.73262955  1779
STARLINK-2410           
1 47825U 21018AQ  21106.58334491 -.00039391  00000-0 -27705-3 0  9996
2 47825  53.0492   7.9102 0001188  82.4934 241.5815 15.73238301  1772
STARLINK-2411           
1 47826U 21018AR  21106.58334491  .00036937  00000-0  26671-3 0  9999
2 47826  53.0491   7.9087 0000949  78.3530 246.3866 15.73172376  1772
STARLINK-2413           
1 47827U 21018AS  21106.58334491  .00014766  00000-0  10941-3 0  9999
2 47827  53.0491   7.9221 0000965  83.7841 234.5608 15.73202719  1774
STARLINK-2415           
1 47828U 21018AT  21106.58334491 -.01076402  00000-0 -33921-1 0  9999
2 47828  53.0495   9.9916 0001279  61.8210 241.7505 15.35138740  1763
STARLINK-2416           
1 47829U 21018AU  21106.58334491 -.01074882  00000-0 -34885-1 0  9990
2 47829  53.0498  10.0716 0001273  86.6205 157.9714 15.34216665  1763
STARLINK-2419           
1 47830U 21018AV  21106.58334491 -.01074970  00000-0 -34689-1 0  9992
2 47830  53.0498  10.0494 0001285  76.6981 179.7350 15.34395542  1761
STARLINK-2420           
1 47831U 21018AW  21106.58334491 -.00022744  00000-0 -15783-3 0  9990
2 47831  53.0492   7.9234 0001112  83.8768 233.8200 15.73230995  1775
STARLINK-2422           
1 47832U 21018AX  21106.58334491 -.00007836  00000-0 -51428-4 0  9993
2 47832  53.0496   7.8922 0000832  78.8366 254.1512 15.73214079  1776
STARLINK-2423           
1 47833U 21018AY  21106.58334491  .00068749  00000-0  49069-3 0  9999
2 47833  53.0494   7.9014 0001002  75.6810 252.8500 15.73175279  1777
STARLINK-2424           
1 47834U 21018AZ  21106.58334491 -.00038893  00000-0 -27348-3 0  9995
2 47834  53.0491   7.9060 0001191  85.0999 240.8841 15.73238080  1773
STARLINK-2425           
1 47835U 21018BA  21106.58334491 -.01095173  00000-0 -15494-1 0  9998
2 47835  53.0489   8.1697 0001388  59.0489 113.9083 15.58551561  1776
STARLINK-2426           
1 47836U 21018BB  21106.58334491  .00075572  00000-0  53941-3 0  9998
2 47836  53.0493   7.9027 0001101  80.7066 247.1232 15.73136357  1776
STARLINK-2427           
1 47837U 21018BC  21106.58334491  .00013781  00000-0  10243-3 0  9991
2 47837  53.0489   7.9457 0000979  90.4395 216.4709 15.73199506  1777
STARLINK-2429           
1 47838U 21018BD  21106.58334491 -.00017405  00000-0 -11965-3 0  9993
2 47838  53.0496   7.8961 0001133  85.4856 245.5936 15.73234173  1779
STARLINK-2431           
1 47839U 21018BE  21106.58334491  .00074077  00000-0  52823-3 0  9998
2 47839  53.0487   7.9510 0001210  75.3820 228.3510 15.73166857  1776
STARLINK-2432           
1 47840U 21018BF  21106.58334491  .00069021  00000-0  49239-3 0  9990
2 47840  53.0489   7.9428 0001097  83.7835 224.4247 15.73185375  1770
STARLINK-2433           
1 47841U 21018BG  21106.58334491 -.00033146  00000-0 -23229-3 0  9993
2 47841  53.0489   7.9412 0000940  71.1745 237.6193 15.73235110  1770
STARLINK-2434           
1 47842U 21018BH  21106.58334491 -.01076123  00000-0 -34114-1 0  9990
2 47842  53.0498   9.9828 0001233  70.2857 221.5700 15.34953717  1766
STARLINK-2435           
1 47843U 21018BJ  21106.58334491 -.01099306  00000-0 -14195-1 0  9996
2 47843  53.0501   8.1727 0001256  69.7948 149.8835 15.60937864  1776
STARLINK-2446           
1 47844U 21018BK  21106.58334491 -.00003871  00000-0 -23161-4 0  9994
2 47844  53.0494   7.8933 0000802  75.6574 256.6800 15.73215356  1778
STARLINK-2453           
1 47845U 21018BL  21106.58334491 -.00009782  00000-0 -65230-4 0  9995
2 47845  53.0495   7.9005 0001271  79.0753 250.0336 15.73239412  1770
STARLINK-2456           
1 47846U 21018BM  21106.58334491  .00061707  00000-0  44112-3 0  9994
2 47846  53.0495   7.8990 0001029  65.5509 264.2481 15.73182103  1775
SHIYAN 9 (SY-9)         
1 47851U 21019A   21105.39031934 -.00000035  00000-0  10000-3 0  9992
2 47851  19.6709  85.8998 7205207 202.4709  94.8624  2.25979527   790
YAOGAN-31 K             
1 47854U 21020A   21106.33920797  .00001339  00000-0  24175-2 0  9990
2 47854  63.4099  65.6553 0009322 302.0685  57.9305 13.45217558  4601
2021-020B               
1 47855U 21020B   21106.30385905 -.00000159  00000-0 -12066-3 0  9992
2 47855  63.4125  65.9873 0004999 294.3641  65.6863 13.43807475  4606
YAOGAN-31 L             
1 47856U 21020C   21106.33939572  .00001063  00000-0  19520-2 0  9995
2 47856  63.4105  66.5394 0009607 302.7133  57.2937 13.45209940  4593
YAOGAN-31 M             
1 47857U 21020D   21106.33940222 -.00000090  00000-0  00000-0 0  9991
2 47857  63.4111  65.6571 0009534 301.8115  58.1959 13.45207352  4608
STARLINK-2258           
1 47860U 21021A   21106.58334491 -.00043419  00000-0 -30581-3 0  9991
2 47860  53.0513  53.0290 0001038  72.1441 193.2564 15.73251503  1771
STARLINK-2280           
1 47861U 21021B   21106.58334491 -.00020998  00000-0 -14541-3 0  9997
2 47861  53.0517  53.0657 0001011  59.2551 189.6769 15.73221213  1773
STARLINK-2291           
1 47862U 21021C   21106.58334491 -.00052087  00000-0 -36832-3 0  9999
2 47862  53.0516  53.0779 0001100  62.3300 180.8516 15.73239379  1779
STARLINK-2293           
1 47863U 21021D   21106.58334491 -.00014718  00000-0 -10053-3 0  9996
2 47863  53.0513  53.0968 0000985  65.1405 169.1149 15.73220371  1778
STARLINK-2304           
1 47864U 21021E   21106.58334491 -.00042619  00000-0 -29997-3 0  9995
2 47864  53.0516  53.0824 0001299  62.9811 178.2407 15.73258506  1777
STARLINK-2310           
1 47865U 21021F   21106.58334491 -.00047490  00000-0 -33521-3 0  9996
2 47865  53.0516  53.0882 0001125  68.4566 170.2474 15.73241099  1773
STARLINK-2320           
1 47866U 21021G   21106.58334491 -.00086949  00000-0 -61979-3 0  9997
2 47866  53.0517  53.0896 0001140  62.5552 175.5127 15.73260877  1775
STARLINK-2321           
1 47867U 21021H   21106.58334491 -.00049494  00000-0 -34977-3 0  9990
2 47867  53.0514  53.0790 0001160  55.9796 186.5626 15.73231448  1772
STARLINK-2323           
1 47868U 21021J   21106.58334491 -.00073587  00000-0 -52289-3 0  9997
2 47868  53.0515  53.0859 0001310  71.3929 167.9246 15.73266464  1774
STARLINK-2324           
1 47869U 21021K   21106.58334491 -.00013994  00000-0 -95391-4 0  9996
2 47869  53.0517  53.0769 0001087  59.5867 184.2393 15.73211355  1771
STARLINK-2326           
1 47870U 21021L   21106.58334491 -.00033750  00000-0 -23663-3 0  9992
2 47870  53.0512  53.1014 0001352  65.7985 166.5560 15.73232846  1774
STARLINK-2327           
1 47871U 21021M   21106.58334491 -.00007920  00000-0 -51982-4 0  9999
2 47871  53.0515  53.0806 0001414  61.4433 180.4031 15.73230776  1774
